{
"type": "FeatureCollection",
"name": "district_boundary",
"crs": { "type": "name", "properties": { "name": "urn:ogc:def:crs:OGC:1.3:CRS84" } },
"features": [
{ "type": "Feature", "properties": { "index": 0, "OBJECTID": 23, "PLN_AREA_N": "WOODLANDS", "PLN_AREA_C": "WD", "CA_IND": "N", "REGION_N": "NORTH REGION", "REGION_C": "NR", "INC_CRC": "84671947FC122B1B", "FMEL_UPD_D": "20251229123848", "SHAPE.AREA": 13612551.134279599, "SHAPE.LEN": 16870.757989690999, "planning_area": "WOODLANDS", "planning_area_code": "WD" }, "geometry": { "type": "Polygon", "coordinates": [ [ [ 103.764395617374788, 1.443449885950123 ], [ 103.764426331397033, 1.443421794657148 ], [ 103.764537633794575, 1.443353032089594 ], [ 103.764683074994537, 1.443278282765472 ], [ 103.764914590612904, 1.443158680534637 ], [ 103.765025893028294, 1.443088424838122 ], [ 103.765103065671582, 1.443052542041978 ], [ 103.765192105229104, 1.442985281819544 ], [ 103.765260362280614, 1.44290906506011 ], [ 103.765328615189404, 1.44282089894886 ], [ 103.765396853469213, 1.442680442561419 ], [ 103.765456941132683, 1.442520731132318 ], [ 103.765489524354138, 1.442427173940186 ], [ 103.765515590652399, 1.442343467779095 ], [ 103.765531874525578, 1.442269610742716 ], [ 103.765553043949893, 1.442169495670252 ], [ 103.765572592279042, 1.442100560275088 ], [ 103.765600290083199, 1.442028342285656 ], [ 103.765658962266642, 1.44193477501863 ], [ 103.765760022903024, 1.441816576878535 ], [ 103.765860150425226, 1.4416800762051 ], [ 103.765997506050454, 1.441508434893136 ], [ 103.766164117131922, 1.441311173833197 ], [ 103.766275985703857, 1.441204443311793 ], [ 103.766634741333235, 1.440842270952662 ], [ 103.766667691676275, 1.440790984586213 ], [ 103.766715616586097, 1.440727637168866 ], [ 103.766763545548599, 1.440679366388082 ], [ 103.766838449137623, 1.440643137089071 ], [ 103.766949297844263, 1.440594843733029 ], [ 103.767060160401186, 1.440564643964845 ], [ 103.767230948027162, 1.440522357319077 ], [ 103.767464665104683, 1.440486081080002 ], [ 103.767644443386956, 1.44046791855066 ], [ 103.767689463909662, 1.440470492769192 ], [ 103.767928698835107, 1.440512127526575 ], [ 103.768214967536011, 1.440511180768734 ], [ 103.768417416020228, 1.440510511926097 ], [ 103.768449119567464, 1.439678888509614 ], [ 103.768464167835205, 1.439284183255262 ], [ 103.768469489672896, 1.439144560587161 ], [ 103.768488665397228, 1.438837684486453 ], [ 103.768504947399236, 1.437615576489846 ], [ 103.768511176169127, 1.437148044416695 ], [ 103.768540290197464, 1.434962737509006 ], [ 103.76854030024657, 1.434605561071366 ], [ 103.768553460510518, 1.434049954154028 ], [ 103.768671794429281, 1.432806455386779 ], [ 103.768790117461307, 1.431946590189181 ], [ 103.768893584365031, 1.431426011797311 ], [ 103.768908433007851, 1.431351300961504 ], [ 103.769029467690928, 1.430947413948117 ], [ 103.769213171510657, 1.430334401017261 ], [ 103.769469743182384, 1.429584662136538 ], [ 103.76980460024329, 1.428663809915061 ], [ 103.769823292329605, 1.42861396645321 ], [ 103.769865837494493, 1.428500426635682 ], [ 103.770042585490614, 1.428029067451352 ], [ 103.770083078098295, 1.427921039665584 ], [ 103.770083423182697, 1.427920120842036 ], [ 103.77026187943369, 1.427444169324866 ], [ 103.77033973907254, 1.4272364853465 ], [ 103.770417143077154, 1.427030039425298 ], [ 103.77070933430727, 1.426073505997676 ], [ 103.770844311648545, 1.425575262477977 ], [ 103.770893651151113, 1.425387466451457 ], [ 103.771037463156958, 1.42466228312635 ], [ 103.77111655864303, 1.424236493838601 ], [ 103.77112770376398, 1.42417308380199 ], [ 103.77114804926569, 1.424019765829943 ], [ 103.771153841983505, 1.423971156458016 ], [ 103.771174205206322, 1.423793498451001 ], [ 103.77118944281834, 1.423651202719603 ], [ 103.771192111777026, 1.423612203027446 ], [ 103.771203489492223, 1.423486687652682 ], [ 103.771205699135606, 1.42345273791286 ], [ 103.771214882305529, 1.423334182458591 ], [ 103.771219166551447, 1.423275681118966 ], [ 103.771221817510707, 1.423237668990892 ], [ 103.7712440661128, 1.422785487922381 ], [ 103.771265264086693, 1.42156569406281 ], [ 103.771266273855844, 1.421507579700965 ], [ 103.771957917858501, 1.422063299746371 ], [ 103.772484626365326, 1.422502912150804 ], [ 103.773627970963261, 1.42339506864521 ], [ 103.774809858304152, 1.424235507755452 ], [ 103.775298029957426, 1.424532895662604 ], [ 103.776222990909915, 1.424998375772968 ], [ 103.777567492442444, 1.42558815335452 ], [ 103.778843723442378, 1.425981072137135 ], [ 103.779714165575939, 1.426209800795697 ], [ 103.779869905797696, 1.426250725078885 ], [ 103.780773961368325, 1.426417535977751 ], [ 103.781582319833191, 1.42650130208812 ], [ 103.782051880746025, 1.426537204139632 ], [ 103.782530362488274, 1.42655064009558 ], [ 103.783784230874147, 1.426562323949104 ], [ 103.78521151904576, 1.426460896598892 ], [ 103.786350382074545, 1.42629661551086 ], [ 103.786357280687767, 1.426290398153188 ], [ 103.786813790331124, 1.426201560095415 ], [ 103.787021660604637, 1.426156558661343 ], [ 103.787177124824225, 1.426121200284219 ], [ 103.787287799459364, 1.426095272602779 ], [ 103.787559361402188, 1.426028829035884 ], [ 103.787670931107016, 1.425998803682208 ], [ 103.787785976569069, 1.425968353341315 ], [ 103.78787427445036, 1.425943309652958 ], [ 103.787999181128782, 1.425908797095936 ], [ 103.788136445351569, 1.425868174895823 ], [ 103.78824089103162, 1.425837018014246 ], [ 103.788350792996894, 1.425803741406862 ], [ 103.788510417048386, 1.425753193328744 ], [ 103.788616423631169, 1.425718963432804 ], [ 103.78873785736468, 1.425677563133725 ], [ 103.788857569380227, 1.425636833832385 ], [ 103.789039799531736, 1.42557264835296 ], [ 103.789153686002152, 1.425530223241247 ], [ 103.789185329219009, 1.425518459890397 ], [ 103.789277173083249, 1.425484336404769 ], [ 103.789667011785085, 1.425332545542921 ], [ 103.789908614264334, 1.425233317035208 ], [ 103.790158694301226, 1.4251196405483 ], [ 103.790266245807445, 1.425069443159449 ], [ 103.790752244186422, 1.424831632657052 ], [ 103.790769163016222, 1.424823013482074 ], [ 103.791190136127454, 1.424608976488667 ], [ 103.79124178853607, 1.424581246937051 ], [ 103.793423224663911, 1.423396957588185 ], [ 103.793715725766873, 1.423238168161768 ], [ 103.794679192373195, 1.42271404256018 ], [ 103.794969199538158, 1.422566240040367 ], [ 103.795448587573759, 1.423003487953351 ], [ 103.795981239328853, 1.423578227952559 ], [ 103.796606327026012, 1.424301939718889 ], [ 103.796957561097898, 1.424699229576336 ], [ 103.79729113948072, 1.425115136334445 ], [ 103.798993589548147, 1.427065903019364 ], [ 103.799058046248518, 1.427140116974807 ], [ 103.799518951493411, 1.427670789979167 ], [ 103.801292123314539, 1.429712365011996 ], [ 103.803508351063996, 1.432293082762 ], [ 103.804444489259737, 1.433369464866753 ], [ 103.806177419589702, 1.435362017352756 ], [ 103.807434628177219, 1.436867090341678 ], [ 103.809473311307727, 1.439197686822255 ], [ 103.809747748470357, 1.439516938209284 ], [ 103.810527184162225, 1.440428903799261 ], [ 103.810675539693037, 1.440629314085619 ], [ 103.810853640791677, 1.4409040515944 ], [ 103.810941340667711, 1.4410513651652 ], [ 103.811014981893749, 1.441209171021254 ], [ 103.811257826472868, 1.441729463765894 ], [ 103.811469516677377, 1.442447622811774 ], [ 103.811550033563037, 1.442940713401731 ], [ 103.8117002908172, 1.44427776042816 ], [ 103.811237037127498, 1.444459405520112 ], [ 103.810853604401814, 1.444611412602198 ], [ 103.810734766926416, 1.444658501630524 ], [ 103.810232498435852, 1.444857669976585 ], [ 103.810018817011851, 1.444943122908107 ], [ 103.809731895851087, 1.445057895427665 ], [ 103.809230310150298, 1.445254553040935 ], [ 103.808730040787182, 1.445453579083605 ], [ 103.808208956897687, 1.445669454884668 ], [ 103.80719179603382, 1.446172708108403 ], [ 103.80633489137125, 1.446720331769439 ], [ 103.805313198197069, 1.447500263253853 ], [ 103.804571634701446, 1.448081094072901 ], [ 103.803994873682129, 1.448628722178171 ], [ 103.803533457231211, 1.449209522807757 ], [ 103.803220361328485, 1.449690772986371 ], [ 103.80291177406248, 1.450337318222111 ], [ 103.802881837186547, 1.450403053288975 ], [ 103.802244507839404, 1.451791780668641 ], [ 103.801766199418154, 1.452815329902717 ], [ 103.801602269370875, 1.453192263585289 ], [ 103.801228530717594, 1.4540267795782 ], [ 103.801124887701988, 1.45434337675713 ], [ 103.801029653716995, 1.454601332409727 ], [ 103.800814522048555, 1.455345589692832 ], [ 103.800803675317795, 1.455386888197788 ], [ 103.800793669540454, 1.455437863404011 ], [ 103.800707597095425, 1.455795367884704 ], [ 103.800496797263193, 1.456671009302257 ], [ 103.800100694254922, 1.456571804736325 ], [ 103.799963272257273, 1.456534816036428 ], [ 103.799187527304554, 1.456315709637561 ], [ 103.799107390242312, 1.456289707061055 ], [ 103.798861135472052, 1.456210188033321 ], [ 103.798535947290219, 1.456079272779662 ], [ 103.798326381870268, 1.45598472374311 ], [ 103.798146091161897, 1.455890383150802 ], [ 103.797987916003748, 1.455795326637355 ], [ 103.797752072005878, 1.455635576146755 ], [ 103.797573335359388, 1.455520620569384 ], [ 103.796215163611393, 1.456598522817018 ], [ 103.795092402788001, 1.457490431429545 ], [ 103.794954906138884, 1.457618665092829 ], [ 103.79442261584947, 1.458221611251644 ], [ 103.794110939322778, 1.458646833853341 ], [ 103.793779163663473, 1.459325171080451 ], [ 103.793336777472931, 1.460266760114818 ], [ 103.793314044123065, 1.460444164145617 ], [ 103.793311634252674, 1.460484320548548 ], [ 103.793186511623006, 1.460482444462304 ], [ 103.792816331284314, 1.460482338298275 ], [ 103.792810607151992, 1.460483360125022 ], [ 103.792808810820475, 1.460484481502986 ], [ 103.792771596765647, 1.46054156966833 ], [ 103.792751023535502, 1.460573132479875 ], [ 103.791861442409612, 1.461937549900856 ], [ 103.791791650238736, 1.462044598089651 ], [ 103.791755966966093, 1.462025189788056 ], [ 103.791726031024609, 1.46196517115792 ], [ 103.791702771477603, 1.461918537229192 ], [ 103.791412866834747, 1.461730379916819 ], [ 103.791423758242161, 1.461713729888205 ], [ 103.79150761039044, 1.461585602169563 ], [ 103.791507978829088, 1.461585038758111 ], [ 103.791456368633831, 1.461568303451418 ], [ 103.791437643606201, 1.461562232109019 ], [ 103.791393306840391, 1.461539242360624 ], [ 103.791350867049545, 1.461515284073939 ], [ 103.791028290515484, 1.461256703326627 ], [ 103.790973584213489, 1.461214567097705 ], [ 103.790970196506763, 1.461212685957725 ], [ 103.79092822309093, 1.461189361630784 ], [ 103.790767040574195, 1.461125004069583 ], [ 103.790659145327396, 1.461109835837068 ], [ 103.790613542211403, 1.461099155338542 ], [ 103.790457022682858, 1.461076406696511 ], [ 103.790431144129741, 1.461056428813708 ], [ 103.790422005518977, 1.461045658575341 ], [ 103.790374820459419, 1.461008776827562 ], [ 103.790330717294964, 1.460988843811106 ], [ 103.790254695791134, 1.460962814769487 ], [ 103.790201462887893, 1.460938278365102 ], [ 103.790046365677043, 1.460878523175315 ], [ 103.789961248350949, 1.460860227158259 ], [ 103.789882199366218, 1.460838837429184 ], [ 103.789862439186592, 1.460831177087359 ], [ 103.789758984020921, 1.460766667740391 ], [ 103.789657805881774, 1.460704476316458 ], [ 103.789556629545459, 1.460642285792489 ], [ 103.78954901846474, 1.460636909203414 ], [ 103.78954140738405, 1.460631533518658 ], [ 103.789425785243864, 1.460560899569785 ], [ 103.789320254378865, 1.460493666219994 ], [ 103.789282180978745, 1.460468335157523 ], [ 103.78924840220067, 1.460433353718336 ], [ 103.789225667166747, 1.460404102542662 ], [ 103.789185142897935, 1.460351968814834 ], [ 103.789167995929901, 1.460341146864529 ], [ 103.789157457221165, 1.46033449687275 ], [ 103.789123700715209, 1.460309593656884 ], [ 103.789089946007238, 1.460284690440578 ], [ 103.789029327353504, 1.460221719326467 ], [ 103.788999862768122, 1.460187597114358 ], [ 103.788984290185653, 1.460175362578454 ], [ 103.788921999616548, 1.460138696643892 ], [ 103.788869989847399, 1.460063416407756 ], [ 103.788830057330287, 1.459988118323787 ], [ 103.788817072680288, 1.459978504683185 ], [ 103.788757396039841, 1.459947971283871 ], [ 103.788710687927278, 1.459924412591832 ], [ 103.788668300307506, 1.459900844941569 ], [ 103.788560058758549, 1.459815781980363 ], [ 103.788499276284924, 1.459768016813793 ], [ 103.788478123397013, 1.459754568506982 ], [ 103.788343209629019, 1.45961674987114 ], [ 103.788171569669402, 1.459490922343158 ], [ 103.788083031156233, 1.459441108221811 ], [ 103.788054033614657, 1.459419737529772 ], [ 103.787999219132146, 1.459400021298763 ], [ 103.787867626971646, 1.459336025878979 ], [ 103.787853902796144, 1.459325513280802 ], [ 103.787844885438631, 1.459318608283534 ], [ 103.787768900237026, 1.459279094199116 ], [ 103.787677270317545, 1.459240411806974 ], [ 103.787642170891559, 1.459237210548182 ], [ 103.787604663119509, 1.459238276929961 ], [ 103.787587328317386, 1.459229531382219 ], [ 103.787556498588629, 1.459205203378448 ], [ 103.787526602688203, 1.459172094025772 ], [ 103.787476426036676, 1.459101949675446 ], [ 103.787457097865342, 1.459061986369178 ], [ 103.787425127477931, 1.458965445835289 ], [ 103.787372039533992, 1.458886529098967 ], [ 103.787293017634596, 1.45881937849852 ], [ 103.787206214621435, 1.458713214406635 ], [ 103.787177307038192, 1.458687908820807 ], [ 103.787126267691107, 1.458664603229055 ], [ 103.787078213326197, 1.458650218337482 ], [ 103.787009817382639, 1.458629745754303 ], [ 103.787006300271145, 1.45862850308629 ], [ 103.786954957991867, 1.458610364111961 ], [ 103.786903937519483, 1.45858706665493 ], [ 103.786839398846723, 1.458544279886798 ], [ 103.786773909353045, 1.458506367615234 ], [ 103.78663237169232, 1.458434494913683 ], [ 103.78658487436384, 1.458425268511582 ], [ 103.78658441338176, 1.458425178969982 ], [ 103.786546681145339, 1.458417861882046 ], [ 103.786519849073642, 1.458405878507057 ], [ 103.786397487933172, 1.458319807688615 ], [ 103.786210734081322, 1.458173839527696 ], [ 103.786144184079873, 1.45814441014356 ], [ 103.785867255261536, 1.458002771951243 ], [ 103.785779247064426, 1.457951574076944 ], [ 103.785679422642374, 1.457880760308045 ], [ 103.785655816175392, 1.457844811364652 ], [ 103.785653075726486, 1.457830885920416 ], [ 103.785652600415872, 1.457828469451587 ], [ 103.785649394650392, 1.457764214371907 ], [ 103.785644030489394, 1.457740257674184 ], [ 103.785633301709638, 1.457714112302972 ], [ 103.785615059726368, 1.457686881535574 ], [ 103.785581785069056, 1.457656385695884 ], [ 103.785575342171555, 1.457652026527366 ], [ 103.785472290677816, 1.457633484878617 ], [ 103.785446536969062, 1.457620407234658 ], [ 103.785411042788738, 1.45758872662912 ], [ 103.785397734834049, 1.457571353525465 ], [ 103.785363490556023, 1.45749989904879 ], [ 103.785161811254071, 1.45734348508788 ], [ 103.78494775892986, 1.457153256699081 ], [ 103.784885937311799, 1.457045129688352 ], [ 103.784865009474416, 1.457015203854461 ], [ 103.784819362272799, 1.456928311641907 ], [ 103.784797481959032, 1.456896450449366 ], [ 103.784757531039986, 1.456850100964938 ], [ 103.784730896970686, 1.456824996166713 ], [ 103.784700443795799, 1.456801824813956 ], [ 103.784680468089292, 1.456790239486416 ], [ 103.784659540637733, 1.456784442063028 ], [ 103.78455583193545, 1.456783454050464 ], [ 103.784490117293657, 1.456772826349606 ], [ 103.784348633792291, 1.456698195201704 ], [ 103.784217197860997, 1.456569311512638 ], [ 103.784183779732729, 1.456526344480336 ], [ 103.784144799128569, 1.456489029595879 ], [ 103.784026725353485, 1.456364668005957 ], [ 103.783944298467702, 1.456273099408621 ], [ 103.783841824022659, 1.456169076378973 ], [ 103.783744912113036, 1.456057160185358 ], [ 103.783718188446272, 1.45602097601918 ], [ 103.783678085296899, 1.455952017431227 ], [ 103.78363807582376, 1.455873052065063 ], [ 103.783637991358731, 1.455872884755983 ], [ 103.783620794716512, 1.455794258127213 ], [ 103.783620191814265, 1.455791500710218 ], [ 103.783596469920454, 1.455735520097205 ], [ 103.783568416581076, 1.455687760049945 ], [ 103.783535358046606, 1.455638977960646 ], [ 103.783472241378362, 1.455584090750268 ], [ 103.783445193764209, 1.455568842583578 ], [ 103.783398116446975, 1.455546485675092 ], [ 103.783309964169675, 1.455515988579806 ], [ 103.78328291649008, 1.455503797159082 ], [ 103.783247862079349, 1.455499735784938 ], [ 103.783207790903617, 1.455489559897968 ], [ 103.783150688821351, 1.455465168847203 ], [ 103.78313064930235, 1.455455012398934 ], [ 103.783077559461404, 1.455431633418698 ], [ 103.783024471508938, 1.45540418480258 ], [ 103.78297739386133, 1.455397075450162 ], [ 103.782957353960683, 1.455404183295151 ], [ 103.782860206200951, 1.455435680082251 ], [ 103.782798102539431, 1.455449904317064 ], [ 103.782723977707207, 1.455448889757747 ], [ 103.782702941572012, 1.455441771943779 ], [ 103.782667888651915, 1.455411285066118 ], [ 103.782618789726158, 1.45533811192417 ], [ 103.782586170853293, 1.455279527438141 ], [ 103.782534737792403, 1.455187153705189 ], [ 103.78246159295206, 1.455083340187656 ], [ 103.782450271649083, 1.455074721348847 ], [ 103.782438015007784, 1.455061327450716 ], [ 103.782391791655584, 1.455026870160651 ], [ 103.782325772366292, 1.454979977424538 ], [ 103.782042779111336, 1.454816317393423 ], [ 103.781969202392432, 1.454778052099829 ], [ 103.781803178786419, 1.454680422277299 ], [ 103.781714485949337, 1.454713954027058 ], [ 103.781659769928012, 1.454718754935825 ], [ 103.781632416704554, 1.454708227517085 ], [ 103.781621094638638, 1.454693875011196 ], [ 103.781606007624518, 1.454670894792954 ], [ 103.781591873500034, 1.454631645101672 ], [ 103.781579627313519, 1.454554113757321 ], [ 103.781526772265238, 1.454521112321891 ], [ 103.781346335234943, 1.454418200652322 ], [ 103.781166787963585, 1.454309808548139 ], [ 103.780945042782363, 1.454182306249598 ], [ 103.780621541428189, 1.453988909635448 ], [ 103.780560356489104, 1.453950536064694 ], [ 103.780389049317478, 1.453848953949523 ], [ 103.780263345458366, 1.453780110850069 ], [ 103.780099820023253, 1.453686423988722 ], [ 103.77991515081159, 1.453579216382329 ], [ 103.779813924743934, 1.453517147521723 ], [ 103.779747169424056, 1.453477643342713 ], [ 103.779739377698519, 1.453475391292214 ], [ 103.779479092390559, 1.453316262351009 ], [ 103.779442367141996, 1.453290288157542 ], [ 103.779419929299905, 1.453279751787072 ], [ 103.779348797108497, 1.453231628909938 ], [ 103.779305763589178, 1.453209353408216 ], [ 103.779283811082166, 1.453195091071609 ], [ 103.779204771156699, 1.45314875863887 ], [ 103.779207943352205, 1.453143270134912 ], [ 103.778924845961882, 1.452957109164856 ], [ 103.778912164193372, 1.452948769724177 ], [ 103.778906070830104, 1.452946432701889 ], [ 103.778846668401656, 1.452923648542714 ], [ 103.77873066915673, 1.45302056361852 ], [ 103.778650454501602, 1.452948295809743 ], [ 103.778623809727137, 1.452924697611045 ], [ 103.778553106221821, 1.452875561833227 ], [ 103.778460430174874, 1.452823668112969 ], [ 103.778456537176268, 1.45279701914676 ], [ 103.778510277314709, 1.452678668253072 ], [ 103.778455372774232, 1.452640339094248 ], [ 103.77834089101178, 1.452561956942014 ], [ 103.778117223728117, 1.452410993336719 ], [ 103.778022989836103, 1.4523467197329 ], [ 103.777765679508718, 1.452173025000233 ], [ 103.777620513766934, 1.452073480858756 ], [ 103.7775216073872, 1.452000584920027 ], [ 103.77743126900522, 1.451934744127776 ], [ 103.777375974626011, 1.451891631756966 ], [ 103.777363414358433, 1.451876057405241 ], [ 103.777340586984664, 1.451847749363567 ], [ 103.777338155425767, 1.451845453124784 ], [ 103.777337815782488, 1.451844312714308 ], [ 103.777332363235615, 1.451837550654676 ], [ 103.777329954357072, 1.451826504702353 ], [ 103.777317551114962, 1.451820293226626 ], [ 103.777276566475251, 1.451797167637198 ], [ 103.777210538043974, 1.451764807873308 ], [ 103.777163855546391, 1.451734745673759 ], [ 103.777102383840216, 1.451705858775425 ], [ 103.777055208759052, 1.451681974266452 ], [ 103.77704320269703, 1.451675895740612 ], [ 103.776998821749842, 1.451636609090686 ], [ 103.776961283235423, 1.451614186272325 ], [ 103.776940772964252, 1.45160193434935 ], [ 103.776821269498768, 1.45154067882744 ], [ 103.776816488990391, 1.451538649316185 ], [ 103.77677846957171, 1.451522509093998 ], [ 103.776758655622928, 1.451514098017495 ], [ 103.776733629865276, 1.451502539625608 ], [ 103.776729705731498, 1.451500210791522 ], [ 103.776644337178325, 1.451449550734944 ], [ 103.776592349348206, 1.451419696393693 ], [ 103.776525337122635, 1.451381214046656 ], [ 103.776360635030144, 1.451280445729963 ], [ 103.776334234597897, 1.451261679524239 ], [ 103.776222000659359, 1.451208047937733 ], [ 103.776155980972931, 1.45118660380799 ], [ 103.776101840828133, 1.451163821521304 ], [ 103.775907717417539, 1.451108831288461 ], [ 103.775758487617111, 1.451073964270428 ], [ 103.77573206877976, 1.451072616996892 ], [ 103.775609220620581, 1.45108868347554 ], [ 103.775577518008717, 1.451087344203781 ], [ 103.775520726625416, 1.45107929391166 ], [ 103.775477153800495, 1.451065880180272 ], [ 103.775412455274264, 1.451036388135102 ], [ 103.775388687481126, 1.451028347733892 ], [ 103.775359626928264, 1.451020298152329 ], [ 103.775288314257438, 1.451008223063766 ], [ 103.775203792186502, 1.450994809173945 ], [ 103.775091539700171, 1.450965324029025 ], [ 103.775010980565781, 1.450947885818563 ], [ 103.774924841333231, 1.450922154449916 ], [ 103.774814233478693, 1.45088549863849 ], [ 103.774711767043897, 1.450845296121633 ], [ 103.774688493400802, 1.450840565695311 ], [ 103.774570876527747, 1.450801557440771 ], [ 103.774542930374167, 1.450788551967779 ], [ 103.774514993268099, 1.450773177063182 ], [ 103.774483560421388, 1.450764901317684 ], [ 103.774452117904019, 1.450748359692084 ], [ 103.774409040241679, 1.450734169105459 ], [ 103.774319387839071, 1.450695170614368 ], [ 103.774286805030343, 1.450677435197211 ], [ 103.774025988985485, 1.450567493946825 ], [ 103.773959629228472, 1.450528496055995 ], [ 103.773890950370827, 1.450482380763835 ], [ 103.773863012312702, 1.45046937528291 ], [ 103.773788510586797, 1.450420926576815 ], [ 103.773658098080546, 1.450366534719675 ], [ 103.773632820837094, 1.450351431184033 ], [ 103.77356493269528, 1.450307793858419 ], [ 103.773466852490756, 1.450263396062446 ], [ 103.773439290434297, 1.450235886410032 ], [ 103.773255282706742, 1.450147442020887 ], [ 103.773231494284232, 1.450138614801015 ], [ 103.773110776768945, 1.450085805807761 ], [ 103.772999890808791, 1.450034507358389 ], [ 103.772873827872274, 1.449968792947229 ], [ 103.772831144954822, 1.44994580288842 ], [ 103.772764919196874, 1.44990424561962 ], [ 103.772704776684847, 1.449873296692668 ], [ 103.772639431560194, 1.449831730400413 ], [ 103.772624159308208, 1.449818118418582 ], [ 103.77253894102374, 1.449765835788276 ], [ 103.772448604547947, 1.44970483043381 ], [ 103.772392824762704, 1.449673442096418 ], [ 103.772317019349629, 1.449620381056312 ], [ 103.772262996628371, 1.449577937828347 ], [ 103.772224699281921, 1.449540505198038 ], [ 103.772131211768283, 1.449466981551207 ], [ 103.772111487954703, 1.44944967964339 ], [ 103.772074779824109, 1.44942760947069 ], [ 103.772000727453246, 1.449379857079853 ], [ 103.771957577593113, 1.449345381580512 ], [ 103.771922571675233, 1.449313641096766 ], [ 103.771886819039196, 1.449281244024468 ], [ 103.771876498755944, 1.449276006575749 ], [ 103.771800128214551, 1.449220511862449 ], [ 103.771800050039872, 1.44922038072766 ], [ 103.771799818205508, 1.449220213414139 ], [ 103.771796046049374, 1.449213995814407 ], [ 103.771791800718034, 1.449193435906637 ], [ 103.77179004920751, 1.449165280320991 ], [ 103.771790034848109, 1.449164605665693 ], [ 103.771607860953651, 1.448956834098348 ], [ 103.771591651279451, 1.448950400014485 ], [ 103.771567119585157, 1.448947071285246 ], [ 103.771553514987957, 1.448939347650742 ], [ 103.771553408058921, 1.448939185766811 ], [ 103.77155317173073, 1.44893905101021 ], [ 103.771545094546312, 1.44892678310254 ], [ 103.771337269189203, 1.448853680430116 ], [ 103.771311119594898, 1.448865843394157 ], [ 103.771292590279998, 1.44887247186548 ], [ 103.771246007083818, 1.448863861948721 ], [ 103.771245680901202, 1.448863522803554 ], [ 103.771244068858337, 1.448861842452382 ], [ 103.771016403316068, 1.448624677783177 ], [ 103.770971916036203, 1.448569492313184 ], [ 103.770862485739158, 1.448492455628582 ], [ 103.770759640732621, 1.448501206104236 ], [ 103.770680508185521, 1.448567964894868 ], [ 103.77061801573133, 1.448706547761207 ], [ 103.769951490461665, 1.450884687643411 ], [ 103.769408001992602, 1.452685973600061 ], [ 103.769373522291318, 1.452666745859335 ], [ 103.769308726045708, 1.452630632795412 ], [ 103.769239211319558, 1.452591888802869 ], [ 103.76905359910549, 1.452488423458417 ], [ 103.76933517595063, 1.451527744688193 ], [ 103.769624758520436, 1.450586880686114 ], [ 103.769860187957207, 1.449826093691937 ], [ 103.769860222107098, 1.449825983360604 ], [ 103.769853658581539, 1.449637703820363 ], [ 103.769832116609209, 1.449437875140399 ], [ 103.76979589850788, 1.449244964423611 ], [ 103.769746390923785, 1.449055290950805 ], [ 103.769675622367274, 1.448869261459282 ], [ 103.769598922912223, 1.448688576583867 ], [ 103.769506300099778, 1.448514248927529 ], [ 103.769401258442343, 1.448347354780045 ], [ 103.769095755961217, 1.447903575111934 ], [ 103.7689741347764, 1.447751611508422 ], [ 103.768822903965415, 1.447627456216922 ], [ 103.768460101312883, 1.447383530030348 ], [ 103.768294914863233, 1.447274902218086 ], [ 103.76813748369365, 1.447153975280535 ], [ 103.76798495912216, 1.4470250539051 ], [ 103.767839803206158, 1.446891809878443 ], [ 103.767490203632917, 1.446563524938793 ], [ 103.76736584293576, 1.446406777094116 ], [ 103.767278521471695, 1.446223686231345 ], [ 103.766910517182353, 1.445331801594119 ], [ 103.76686908661874, 1.44520038737413 ], [ 103.766839636376417, 1.445000259998839 ], [ 103.766849176288986, 1.444801372748872 ], [ 103.766895989978792, 1.444605262990049 ], [ 103.766978324751733, 1.444426346215907 ], [ 103.766944746789761, 1.444334805596486 ], [ 103.767037063292889, 1.444213913048968 ], [ 103.767052265389964, 1.444196274797206 ], [ 103.767062800010862, 1.444184051734627 ], [ 103.767045191013963, 1.444186343778402 ], [ 103.766963565638733, 1.444196974882876 ], [ 103.766963172051206, 1.444197026420022 ], [ 103.766910982365388, 1.444197037547046 ], [ 103.766891292281173, 1.444197045107236 ], [ 103.766837382809612, 1.444192543410124 ], [ 103.766442033425946, 1.444111301844597 ], [ 103.766109556617593, 1.443957692235815 ], [ 103.76583998168401, 1.443835710941115 ], [ 103.765157117387488, 1.443741010861036 ], [ 103.765103202315743, 1.443713901855074 ], [ 103.76502682818105, 1.443700364849968 ], [ 103.764851626733957, 1.443700429182946 ], [ 103.764644970679214, 1.443673377028784 ], [ 103.764537129958939, 1.4435829853736 ], [ 103.764395617374788, 1.443449885950123 ] ] ] } }
]
}
