{
"type": "FeatureCollection",
"name": "sector_73_candidate_boundary",
"crs": { "type": "name", "properties": { "name": "urn:ogc:def:crs:OGC:1.3:CRS84" } },
"features": [
{ "type": "Feature", "properties": { "postal_sector": "73", "source": "Convex hull of AED locations — candidate only" }, "geometry": { "type": "Polygon", "coordinates": [ [ [ 103.762245512010168, 1.425241660535932 ], [ 103.735222196274336, 1.440205644853902 ], [ 103.769142484136282, 1.446877669642136 ], [ 103.772163724398609, 1.447140644771214 ], [ 103.80149874689566, 1.449200700921229 ], [ 103.806000088835304, 1.448409628255583 ], [ 103.809074735369251, 1.447145651651561 ], [ 103.811127042314084, 1.445479702067062 ], [ 103.807731961772831, 1.438891719788763 ], [ 103.807319974481103, 1.438221644932621 ], [ 103.806763028570955, 1.437320660752408 ], [ 103.805092190979963, 1.435330699578391 ], [ 103.796501492736851, 1.428100657011653 ], [ 103.793075894524407, 1.426281641809254 ], [ 103.762245512010168, 1.425241660535932 ] ] ] } }
]
}
